start=new Date('2021-12-17T00:00:00.000Z').valueOf();
sats=[{"TIME_SYSTEM":"UTC","APOAPSIS":"548.823","RCS_SIZE":"LARGE","CENTER_NAME":"EARTH","FILE":"3242223","TLE_LINE1":"1 48307U 21036AH  21350.81195946 -.00001265  00000-0 -66038-4 0  9991","EPHEMERIS_TYPE":"0","LAUNCH_DATE":"2021-04-29","PERIOD":"95.592","ARG_OF_PERICENTER":"86.4748","EPOCH":"2021-12-16T19:29:13.297344","PERIAPSIS":"545.639","ECCENTRICITY":"0.00022990","GP_ID":"191861493","MEAN_MOTION_DDOT":"0.0000000000000","MEAN_MOTION":"15.06394349","SITE":"AFETR","DECAY_DATE":null,"BSTAR":"-0.00006603800000","OBJECT_NAME":"STARLINK-2528","SEMIMAJOR_AXIS":"6925.366","RA_OF_ASC_NODE":"182.3483","OBJECT_TYPE":"PAYLOAD","NORAD_CAT_ID":"48307","MEAN_ELEMENT_THEORY":"SGP4","MEAN_MOTION_DOT":"-0.00001265","INCLINATION":"53.0546","COUNTRY_CODE":"US","OBJECT_ID":"2021-036AH","CLASSIFICATION_TYPE":"U","TLE_LINE2":"2 48307  53.0546 182.3483 0002299  86.4748 273.6504 15.06394349 35475","REF_FRAME":"TEME","ELEMENT_SET_NO":"999","REV_AT_EPOCH":"3547","MEAN_ANOMALY":"273.6504"},{"OBJECT_NAME":"STARLINK-2532","BSTAR":"0.00005290800000","DECAY_DATE":null,"SITE":"AFETR","MEAN_MOTION":"15.06385552","MEAN_MOTION_DDOT":"0.0000000000000","MEAN_ELEMENT_THEORY":"SGP4","MEAN_MOTION_DOT":"0.00000506","NORAD_CAT_ID":"48308","OBJECT_TYPE":"PAYLOAD","RA_OF_ASC_NODE":"182.3742","SEMIMAJOR_AXIS":"6925.393","REF_FRAME":"TEME","TLE_LINE2":"2 48308  53.0550 182.3742 0002458  84.0835 276.0434 15.06385552 35472","CLASSIFICATION_TYPE":"U","OBJECT_ID":"2021-036AJ","COUNTRY_CODE":"US","INCLINATION":"53.0550","MEAN_ANOMALY":"276.0434","REV_AT_EPOCH":"3547","ELEMENT_SET_NO":"999","CENTER_NAME":"EARTH","RCS_SIZE":"LARGE","APOAPSIS":"548.960","TIME_SYSTEM":"UTC","PERIOD":"95.593","LAUNCH_DATE":"2021-04-29","EPHEMERIS_TYPE":"0","TLE_LINE1":"1 48308U 21036AJ  21350.80828147  .00000506  00000-0  52908-4 0  9993","FILE":"3242223","PERIAPSIS":"545.556","ARG_OF_PERICENTER":"84.0835","EPOCH":"2021-12-16T19:23:55.519008","ECCENTRICITY":"0.00024580","GP_ID":"191860241"},{"PERIAPSIS":"545.346","ARG_OF_PERICENTER":"88.6456","EPOCH":"2021-12-16T19:18:36.645120","GP_ID":"191860491","ECCENTRICITY":"0.00027270","TIME_SYSTEM":"UTC","RCS_SIZE":"MEDIUM","APOAPSIS":"549.123","CENTER_NAME":"EARTH","PERIOD":"95.593","EPHEMERIS_TYPE":"0","TLE_LINE1":"1 48309U 21036AK  21350.80459080 -.00001382  00000-0 -73872-4 0  9998","FILE":"3242223","LAUNCH_DATE":"2021-04-29","INCLINATION":"53.0535","COUNTRY_CODE":"US","TLE_LINE2":"2 48309  53.0535 182.3968 0002727  88.6456 271.4846 15.06393045 35476","REF_FRAME":"TEME","CLASSIFICATION_TYPE":"U","OBJECT_ID":"2021-036AK","ELEMENT_SET_NO":"999","REV_AT_EPOCH":"3547","MEAN_ANOMALY":"271.4846","SITE":"AFETR","MEAN_MOTION":"15.06393045","DECAY_DATE":null,"MEAN_MOTION_DDOT":"0.0000000000000","OBJECT_NAME":"STARLINK-2517","BSTAR":"-0.00007387200000","SEMIMAJOR_AXIS":"6925.370","RA_OF_ASC_NODE":"182.3968","NORAD_CAT_ID":"48309","MEAN_MOTION_DOT":"-0.00001382","MEAN_ELEMENT_THEORY":"SGP4","OBJECT_TYPE":"PAYLOAD"},{"MEAN_MOTION_DDOT":"0.0000000000000","DECAY_DATE":null,"MEAN_MOTION":"15.06393560","SITE":"AFETR","BSTAR":"-0.00007139300000","OBJECT_NAME":"STARLINK-2536","RA_OF_ASC_NODE":"182.3948","SEMIMAJOR_AXIS":"6925.368","OBJECT_TYPE":"PAYLOAD","MEAN_MOTION_DOT":"-0.00001345","MEAN_ELEMENT_THEORY":"SGP4","NORAD_CAT_ID":"48310","COUNTRY_CODE":"US","INCLINATION":"53.0540","CLASSIFICATION_TYPE":"U","OBJECT_ID":"2021-036AL","TLE_LINE2":"2 48310  53.0540 182.3948 0002607  85.0004 275.1282 15.06393560 35476","REF_FRAME":"TEME","ELEMENT_SET_NO":"999","MEAN_ANOMALY":"275.1282","REV_AT_EPOCH":"3547","TIME_SYSTEM":"UTC","CENTER_NAME":"EARTH","RCS_SIZE":"LARGE","APOAPSIS":"549.039","LAUNCH_DATE":"2021-04-29","TLE_LINE1":"1 48310U 21036AL  21350.80090465 -.00001345  00000-0 -71393-4 0  9993","FILE":"3242223","EPHEMERIS_TYPE":"0","PERIOD":"95.593","EPOCH":"2021-12-16T19:13:18.161760","ARG_OF_PERICENTER":"85.0004","PERIAPSIS":"545.428","GP_ID":"191861243","ECCENTRICITY":"0.00026070"},{"PERIAPSIS":"545.169","ARG_OF_PERICENTER":"83.4525","EPOCH":"2021-12-16T20:43:31.401696","ECCENTRICITY":"0.00029170","GP_ID":"191861993","TIME_SYSTEM":"UTC","CENTER_NAME":"EARTH","RCS_SIZE":"LARGE","APOAPSIS":"549.209","PERIOD":"95.592","LAUNCH_DATE":"2021-04-29","EPHEMERIS_TYPE":"0","TLE_LINE1":"1 48311U 21036AM  21350.86355789  .00001129  00000-0  94675-4 0  9999","FILE":"3242223","COUNTRY_CODE":"US","INCLINATION":"53.0551","TLE_LINE2":"2 48311  53.0551 182.1298 0002917  83.4525 276.6796 15.06408046 35482","REF_FRAME":"TEME","OBJECT_ID":"2021-036AM","CLASSIFICATION_TYPE":"U","ELEMENT_SET_NO":"999","MEAN_ANOMALY":"276.6796","REV_AT_EPOCH":"3548","DECAY_DATE":null,"MEAN_MOTION":"15.06408046","SITE":"AFETR","MEAN_MOTION_DDOT":"0.0000000000000","OBJECT_NAME":"STARLINK-2534","BSTAR":"0.00009467500000","RA_OF_ASC_NODE":"182.1298","SEMIMAJOR_AXIS":"6925.324","MEAN_MOTION_DOT":"0.00001129","MEAN_ELEMENT_THEORY":"SGP4","NORAD_CAT_ID":"48311","OBJECT_TYPE":"PAYLOAD"},{"ELEMENT_SET_NO":"999","MEAN_ANOMALY":"276.8042","REV_AT_EPOCH":"3547","COUNTRY_CODE":"US","INCLINATION":"53.0533","CLASSIFICATION_TYPE":"U","OBJECT_ID":"2021-036AN","REF_FRAME":"TEME","TLE_LINE2":"2 48312  53.0533 182.4432 0002540  83.3236 276.8042 15.06403173 35477","RA_OF_ASC_NODE":"182.4432","SEMIMAJOR_AXIS":"6925.339","OBJECT_TYPE":"PAYLOAD","MEAN_MOTION_DOT":"0.00001100","MEAN_ELEMENT_THEORY":"SGP4","NORAD_CAT_ID":"48312","MEAN_MOTION_DDOT":"0.0000000000000","DECAY_DATE":null,"SITE":"AFETR","MEAN_MOTION":"15.06403173","BSTAR":"0.00009274900000","OBJECT_NAME":"STARLINK-2061","ECCENTRICITY":"0.00025400","GP_ID":"191860741","EPOCH":"2021-12-16T19:02:41.633088","ARG_OF_PERICENTER":"83.3236","PERIAPSIS":"545.445","LAUNCH_DATE":"2021-04-29","FILE":"3242223","TLE_LINE1":"1 48312U 21036AN  21350.79353742  .00001100  00000-0  92749-4 0  9998","EPHEMERIS_TYPE":"0","PERIOD":"95.592","TIME_SYSTEM":"UTC","CENTER_NAME":"EARTH","APOAPSIS":"548.963","RCS_SIZE":"LARGE"},{"ECCENTRICITY":"0.00025490","GP_ID":"191860991","ARG_OF_PERICENTER":"79.3751","EPOCH":"2021-12-16T20:32:55.258368","PERIAPSIS":"545.477","FILE":"3242223","TLE_LINE1":"1 48313U 21036AP  21350.85619512 -.00001076  00000-0 -53343-4 0  9997","EPHEMERIS_TYPE":"0","LAUNCH_DATE":"2021-04-29","PERIOD":"95.593","TIME_SYSTEM":"UTC","RCS_SIZE":"LARGE","APOAPSIS":"549.007","CENTER_NAME":"EARTH","ELEMENT_SET_NO":"999","REV_AT_EPOCH":"3547","MEAN_ANOMALY":"280.7525","INCLINATION":"53.0523","COUNTRY_CODE":"US","OBJECT_ID":"2021-036AP","CLASSIFICATION_TYPE":"U","REF_FRAME":"TEME","TLE_LINE2":"2 48313  53.0523 182.1632 0002549  79.3751 280.7525 15.06390742 35479","SEMIMAJOR_AXIS":"6925.377","RA_OF_ASC_NODE":"182.1632","OBJECT_TYPE":"PAYLOAD","NORAD_CAT_ID":"48313","MEAN_ELEMENT_THEORY":"SGP4","MEAN_MOTION_DOT":"-0.00001076","MEAN_MOTION_DDOT":"0.0000000000000","SITE":"AFETR","MEAN_MOTION":"15.06390742","DECAY_DATE":null,"BSTAR":"-0.00005334300000","OBJECT_NAME":"STARLINK-2541"},{"RA_OF_ASC_NODE":"182.1838","SEMIMAJOR_AXIS":"6925.351","OBJECT_TYPE":"PAYLOAD","MEAN_ELEMENT_THEORY":"SGP4","MEAN_MOTION_DOT":"0.00001071","NORAD_CAT_ID":"48314","MEAN_MOTION_DDOT":"0.0000000000000","DECAY_DATE":null,"SITE":"AFETR","MEAN_MOTION":"15.06399083","BSTAR":"0.00009083300000","OBJECT_NAME":"STARLINK-2549","ELEMENT_SET_NO":"999","MEAN_ANOMALY":"277.5077","REV_AT_EPOCH":"3547","COUNTRY_CODE":"US","INCLINATION":"53.0533","OBJECT_ID":"2021-036AQ","CLASSIFICATION_TYPE":"U","REF_FRAME":"TEME","TLE_LINE2":"2 48314  53.0533 182.1838 0002595  82.6207 277.5077 15.06399083 35476","LAUNCH_DATE":"2021-04-29","FILE":"3242223","TLE_LINE1":"1 48314U 21036AQ  21350.85252718  .00001071  00000-0  90833-4 0  9997","EPHEMERIS_TYPE":"0","PERIOD":"95.592","TIME_SYSTEM":"UTC","CENTER_NAME":"EARTH","RCS_SIZE":"LARGE","APOAPSIS":"549.013","GP_ID":"191861743","ECCENTRICITY":"0.00025950","ARG_OF_PERICENTER":"82.6207","EPOCH":"2021-12-16T20:27:38.348352","PERIAPSIS":"545.419"},{"ELEMENT_SET_NO":"999","REV_AT_EPOCH":"3547","MEAN_ANOMALY":"273.0355","INCLINATION":"53.0548","COUNTRY_CODE":"US","REF_FRAME":"TEME","TLE_LINE2":"2 48315  53.0548 182.1986 0002671  87.0940 273.0355 15.06397976 35474","CLASSIFICATION_TYPE":"U","OBJECT_ID":"2021-036AR","SEMIMAJOR_AXIS":"6925.355","RA_OF_ASC_NODE":"182.1986","NORAD_CAT_ID":"48315","MEAN_ELEMENT_THEORY":"SGP4","MEAN_MOTION_DOT":"0.00000797","OBJECT_TYPE":"PAYLOAD","MEAN_MOTION":"15.06397976","SITE":"AFETR","DECAY_DATE":null,"MEAN_MOTION_DDOT":"0.0000000000000","OBJECT_NAME":"STARLINK-2506","BSTAR":"0.00007245100000","GP_ID":"191861494","ECCENTRICITY":"0.00026710","PERIAPSIS":"545.370","ARG_OF_PERICENTER":"87.0940","EPOCH":"2021-12-16T20:22:20.003232","PERIOD":"95.592","EPHEMERIS_TYPE":"0","TLE_LINE1":"1 48315U 21036AR  21350.84884263  .00000797  00000-0  72451-4 0  9993","FILE":"3242223","LAUNCH_DATE":"2021-04-29","TIME_SYSTEM":"UTC","APOAPSIS":"549.070","RCS_SIZE":"LARGE","CENTER_NAME":"EARTH"},{"PERIOD":"95.592","TLE_LINE1":"1 48316U 21036AS  21350.91149266  .00000751  00000-0  69357-4 0  9990","EPHEMERIS_TYPE":"0","FILE":"3242223","LAUNCH_DATE":"2021-04-29","APOAPSIS":"548.884","RCS_SIZE":"LARGE","CENTER_NAME":"EARTH","TIME_SYSTEM":"UTC","GP_ID":"191860242","ECCENTRICITY":"0.00024170","PERIAPSIS":"545.536","ARG_OF_PERICENTER":"85.7559","EPOCH":"2021-12-16T21:52:32.965824","NORAD_CAT_ID":"48316","MEAN_MOTION_DOT":"0.00000751","MEAN_ELEMENT_THEORY":"SGP4","OBJECT_TYPE":"PAYLOAD","SEMIMAJOR_AXIS":"6925.345","RA_OF_ASC_NODE":"181.9201","OBJECT_NAME":"STARLINK-2507","BSTAR":"0.00006935700000","SITE":"AFETR","MEAN_MOTION":"15.06401111","DECAY_DATE":null,"MEAN_MOTION_DDOT":"0.0000000000000","REV_AT_EPOCH":"3548","MEAN_ANOMALY":"274.3706","ELEMENT_SET_NO":"999","TLE_LINE2":"2 48316  53.0546 181.9201 0002417  85.7559 274.3706 15.06401111 35481","REF_FRAME":"TEME","OBJECT_ID":"2021-036AS","CLASSIFICATION_TYPE":"U","INCLINATION":"53.0546","COUNTRY_CODE":"US"}];
